#aV2009  4 15  0  0   .00000000      96 DD+AD WGS84 FIT  NGA
## 1527 259200.00000000   900.00000000 54936  .0000000000000
+   31     2  3  4  5  6  7  8  9 10 11 12 13 14 15 16 17 18
+         19 20 21 22 23 24 25 26 27 28 29 30 31 32  0  0  0
+          0  0  0  0  0  0  0  0  0  0  0  0  0  0  0  0  0
+          0  0  0  0  0  0  0  0  0  0  0  0  0  0  0  0  0
+          0  0  0  0  0  0  0  0  0  0  0  0  0  0  0  0  0
++         0  0  0  0  0  0  0  0  0  0  0  0  0  0  0  0  0
++         0  0  0  0  0  0  0  0  0  0  0  0  0  0  0  0  0
++         0  0  0  0  0  0  0  0  0  0  0  0  0  0  0  0  0
++         0  0  0  0  0  0  0  0  0  0  0  0  0  0  0  0  0
++         0  0  0  0  0  0  0  0  0  0  0  0  0  0  0  0  0
%c cc cc ccc ccc cccc cccc cccc cccc ccccc ccccc ccccc ccccc
%c cc cc ccc ccc cccc cccc cccc cccc ccccc ccccc ccccc ccccc
%f  0.0000000  0.000000000  0.00000000000  0.000000000000000
%f  0.0000000  0.000000000  0.00000000000  0.000000000000000
%i    0    0    0    0      0      0      0      0         0
%i    0    0    0    0      0      0      0      0         0
/*      NGA, ST. LOUIS,MO.                                  
/*   EPHEMERIS COMPUTED FROM  3 DAYS OF DATA                
/* CCCCCCCCCCCCCCCCCCCCCCCCCCCCCCCCCCCCCCCCCCCCCCCCCCCCCCCCC
/* CCCCCCCCCCCCCCCCCCCCCCCCCCCCCCCCCCCCCCCCCCCCCCCCCCCCCCCCC
*  2009  4 15 15  0   .00000000                                                 
P  2  23042.555234 -12751.273068      4.876127    153.566028                    
V  2   1942.262410   3241.643182 -31596.250958      -.001275                    
P  3 -10929.414329  17366.278923  16368.528342    379.925870                    
V  3  -4507.335187 -21312.631596  19599.794675       .051791                    
P  4  24034.456120  -3374.522394 -11340.475549    -52.757062                    
V  4 -11247.095751   8915.982994 -26434.961194      -.149385                    
P  5  -6325.077191 -18157.129317 -18673.441039    -35.879553                    
V  5  21401.645096   8842.688678 -15985.404069      -.130114                    
P  6 -13890.289178  12563.943929  19008.134052     81.593219                    
V  6  -2020.513554 -23819.426085  14461.199048       .171262                    
P  7   8971.443736  12236.268964  21786.531997     20.336864                    
V  7 -24319.223722  13224.759383   2473.836620      -.005486                    
P  8  20477.750130   2808.694717  16909.656372   -198.596221                    
V  8 -18940.294620   9828.261158  20756.269976      -.017082                    
P  9   8326.434225 -18619.064646 -17607.888752     50.883567                    
V  9  18899.277098  -9471.973131  19787.312657       .019926                    
P 10  14471.838035  -7918.528456  20719.993323    -14.408615                    
V 10  21893.375968  15156.400083  -9092.350688      -.006892                    
P 11  -4390.688022  20728.624421 -16016.262968      1.088635                    
V 11 -17697.514595  10629.945322  19204.483174      -.014496                    
P 12  -3667.995053 -17945.600667 -19201.696591   -293.839403                    
V 12  21399.219188  11963.057081 -15093.976597       .047797                    
P 13   6140.167524  22565.554060  12471.975775    294.575189                    
V 13  -2853.294012  15797.683397 -26894.052877       .010394                    
P 14 -13912.594346  -6008.279126 -21707.819261   -125.423390                    
V 14   2231.546898 -27664.532941   6085.972882       .057659                    
P 15   7470.028785 -23415.258509  10012.527249   -281.405706                    
V 15   2442.090072  12753.361772  28124.272176      -.043010                    
P 16 -18369.229821   3657.707665  18988.198823     59.203435                    
V 16 -19390.103846 -13980.863311 -15883.900608      -.031481                    
P 17  14247.362636   8109.160468 -20869.050804     54.403902                    
V 17  -1989.659533  26547.009372   8742.553016       .016417                    
P 18 -20100.544560 -17159.275139   4415.712937    -65.372393                    
V 18   6059.732859    438.761339  30452.893806       .033958                    
P 19  -7865.638773  24098.238078   7556.115603     28.242811                    
V 19  -1920.899900  -9830.901490  29845.937054      -.009203                    
P 20   5931.068499  18699.425630 -18053.779690     85.268338                    
V 20 -20492.628478  -9950.637750 -17116.950676      -.010503                    
P 21 -13656.864466 -10208.411294  20733.140119     19.111283                    
V 21  22612.020508 -12327.424968   8301.014414      -.019820                    
P 22 -23592.069860 -10755.568567  -5767.431414    201.559799                    
V 22  -4409.481750  -6937.785745  30100.725388      -.009181                    
P 23    202.671093  26348.754585   1712.460534    389.407909                    
V 23  -2824.460834   2148.605802 -32054.313889       .003109                    
P 24   2170.550827 -17116.322911  20391.614956    181.478868                    
V 24  23500.775589 -10098.930971 -10791.394553       .028841                    
P 25   1871.824744  16291.949468  21280.870612    360.796749                    
V 25 -22081.560077  14016.614213  -8742.942688       .210551                    
P 26   5613.249915 -25007.342471   5299.690854     56.880826                    
V 26   1599.429831   7671.552171  31846.979600       .018416                    
P 27  20489.183797 -16159.065169  -4487.888008     41.089542                    
V 27   6805.390875  -1382.080868  31331.247114       .032190                    
P 28  23220.277221  12752.279668  -3148.205189    -24.010416                    
V 28   2415.428624   4481.122651  31331.269576      -.001231                    
P 29  -6407.934171 -23377.197746  11010.010083      9.907246                    
V 29   3174.920992 -13652.333578 -27368.255984       .042034                    
P 30 -14695.806891 -18524.436179 -12542.076150    139.442940                    
V 30  14548.323001   5434.984135 -25740.953503       .025868                    
P 31 -24175.568306   5824.150124  -9316.969071    -57.759879                    
V 31   9599.907895  -7631.380787 -28889.946190      -.011013                    
P 32  -3170.824075  15670.710580 -20852.223798    274.312776                    
V 32 -22322.061937 -15814.266647  -8091.032755      -.049178                    
EOF
